{"fetched_at":"2026-03-29T16:36:15Z","count":15609,"tles":[{"name":"STARLINK-2388","line1":"1 47807U 21018W   26087.84357895  .00000642  00000+0  33802-4 0  9991","line2":"2 47807  53.1605 127.7453 0001228  87.5480 272.5661 15.30204149280011","category":"Starlink"}]}